ONEWEB-0525             
1 54143U 22138AG  24093.53218785  .00000010  00000+0 -84547-5 0  9994
2 54143  87.9094 105.3315 0001634  83.7154 276.4165 13.19723605 70562
ONEWEB-0526             
1 54144U 22138AH  24093.79280524 -.00000002  00000+0 -37695-4 0  9996
2 54144  87.9093 105.2760 0001784  91.6419 268.4918 13.19723006 71443
ONEWEB-0529             
1 54145U 22138AJ  24093.79597049  .00000072  00000+0  14805-3 0  9992
2 54145  87.9101 105.2847 0001563  85.9411 274.1900 13.19724020 71467
ONEWEB-0531             
1 54146U 22138AK  24093.48327864 -.00000003  00000+0 -38891-4 0  9993
2 54146  87.9150  74.7574 0002613 109.6638 250.4778 13.20770478 72956
ONEWEB-0535             
1 54147U 22138AL  24093.75332167  .00000098  00000+0  21125-3 0  9999
2 54147  87.9092 105.2824 0002245  94.4930 265.6459 13.19723373 71477
ONEWEB-0536             
1 54148U 22138AM  24093.47065319  .00000015  00000+0  59843-5 0  9990
2 54148  87.9150  74.8098 0002924  97.7377 262.4088 13.20770001 72940
GSLV R/B                
1 54149U 22138AN  24093.58271015  .00003196  00000+0  32522-3 0  9991
2 54149  87.3830  42.2594 0023826 180.1852 179.9372 14.90241189 78525
ONEWEB-0527             
1 54642U 22166A   24093.61018406  .00000020  00000+0  17069-4 0  9990
2 54642  87.9286  44.3276 0001858  84.8996 275.2350 13.21823582 65117
